{
  "norad_id": 64549,
  "name": "ROADS 2",
  "history": [
    {
      "epoch": "2026-03-28T18:48:21.496032",
      "apogee_km": 499.0343188215602,
      "perigee_km": 495.8569745688701,
      "latitude_deg": -67.09393191582186,
      "longitude_deg": -9.876115520019084,
      "semi_major_axis_km": 6875.582646695215,
      "eccentricity": 0.00023106,
      "inclination_deg": 97.4677,
      "raan_deg": 204.3213,
      "arg_perigee_deg": 63.8942,
      "mean_anomaly_deg": 296.2532,
      "mean_motion_rev_day": 15.2278469
    },
    {
      "epoch": "2026-03-29T01:06:51.229728",
      "apogee_km": 499.0105685924018,
      "perigee_km": 495.8505577403703,
      "latitude_deg": -13.053415827606292,
      "longitude_deg": 15.356921919854358,
      "semi_major_axis_km": 6875.567563166385,
      "eccentricity": 0.0002298,
      "inclination_deg": 97.4676,
      "raan_deg": 204.5827,
      "arg_perigee_deg": 63.6233,
      "mean_anomaly_deg": 296.5239,
      "mean_motion_rev_day": 15.22789701
    }
  ]
}